STARLINK-1445_new
1 15662C 20035F   21326.14409944  .00003419  00000-0  22902-3 0  3261
2 15662  53.0526 268.1014 0001735  66.6181 262.6051 15.06401124    19
STARLINK-1445_old
1 25662C 20035F   21325.16892794  .00005606  00000-0  37563-3 0  3259
2 25662  53.0531 272.4789 0001691  65.1894  12.7223 15.06389213    17
